MONITOR-3 (RS58S)       
1 57180U 23091Q   26162.23814354  .00009115  00000+0  33843-3 0  9992
2 57180  97.5091 225.6408 0013084 119.1616 241.0934 15.27719928163387
MONITOR-4 (RS57S)       
1 57182U 23091S   26162.21753607  .00008343  00000+0  30919-3 0  9998
2 57182  97.5084 225.5908 0013082 119.5083 240.7462 15.27810441163389
MONITOR-2 (RS39S)       
1 57184U 23091U   26162.18587231  .00004339  00000+0  21115-3 0  9993
2 57184  97.5079 220.5076 0012525 129.4835 230.7509 15.18853070163041
SVYATOBOR 1 (RS60S)     
1 57187U 23091X   26162.22553241  .00007478  00000+0  28877-3 0  9994
2 57187  97.5096 226.0095 0010915 112.2745 247.9652 15.26511693163406
HORS 1                  
1 57188U 23091Y   26162.27702770  .00007761  00000+0  29866-3 0  9997
2 57188  97.5074 225.8246 0010382 111.8314 248.4030 15.26615912163419
VIZARD-METEO (RS38S)    
1 57189U 23091Z   26162.21906302  .00014070  00000+0  40518-3 0  9997
2 57189  97.5098 231.5852 0008584  95.4893 264.7330 15.35833105163772
SITRO-AIS 6 (CHIRKIN)   
1 57192U 23091AC  26162.21222109  .00008240  00000+0  32428-3 0  9990
2 57192  97.5075 225.2057 0013057 124.8775 235.3693 15.25818808163379
SITRO-AIS 8 (ANOKHIN)   
1 57193U 23091AD  26162.27429643  .00012592  00000+0  40941-3 0  9993
2 57193  97.5064 227.6825 0011862 118.1556 242.0886 15.31971673163547
SITRO-AIS 7 (FARTUSHNIY)
1 57194U 23091AE  26162.21415314  .00008098  00000+0  32177-3 0  9996
2 57194  97.5073 225.0356 0012868 125.8357 234.4078 15.25508577163360
AVION KALUGA 650        
1 57195U 23091AF  26162.23861455  .00005028  00000+0  23433-3 0  9995
2 57195  97.5096 221.8391 0011726 127.3021 232.9285 15.20287857163123
HORS 2                  
1 57196U 23091AG  26162.28507271  .00011821  00000+0  38760-3 0  9991
2 57196  97.5096 229.2345 0009509 105.3799 254.8494 15.31739619163629
A-SEANSAT-PG1           
1 57197U 23091AH  26162.28152565  .00016015  00000+0  44740-3 0  9999
2 57197  97.5087 231.7374 0008527 102.5197 257.7001 15.36753877163803
SITRO-AIS 10 (BURDAEV)  
1 57199U 23091AK  26162.26556048  .00017044  00000+0  45169-3 0  9992
2 57199  97.5087 232.6668 0007842  97.7802 262.4334 15.38382847163852
SITRO-AIS 9 (SHCHUKIN)  
1 57201U 23091AM  26162.22502381  .00016105  00000+0  43366-3 0  9997
2 57201  97.5086 232.3600 0008096  98.0046 262.2117 15.37899887163835
UTMN 2 (RS27S)          
1 57203U 23091AP  26162.24759797  .00010869  00000+0  35482-3 0  9997
2 57203  97.5094 229.3867 0009478 101.4316 258.7990 15.31903962163632
SITRO-AIS 12 (SMIRENNIY)
1 57204U 23091AQ  26162.28182480  .00016709  00000+0  44563-3 0  9990
2 57204  97.5099 232.8815 0007660  92.9288 267.2833 15.38191522163867
SITRO-AIS 11 (SHEFFER)  
1 57208U 23091AU  26162.23182920  .00016714  00000+0  43975-3 0  9990
2 57208  97.5097 233.0732 0007557  92.9153 267.2957 15.38611279163870
H2SAT (HEINRICH HERTZ)  
1 57213U 23093A   26162.13378042  .00000019  00000+0  00000+0 0  9998
2 57213   0.0577 109.1609 0001566  32.3816 166.7977  1.00272336 10857
KUZGTU 1 (RS47S)        
1 57217U 23091AV  26162.21259783  .00009711  00000+0  33913-3 0  9990
2 57217  97.5071 226.6321 0012356 116.4219 243.8290 15.29722519163467
QIANKUN-1               
1 57422U 23103B   26161.63652352  .00015936  17687-5  19495-4 0  9997
2 57422  96.1537 206.9401 0027936 148.1317 212.1666 16.07641077166249
FENGYUN 3F              
1 57490U 23111A   26162.26652813  .00000021  00000+0  30185-4 0  9996
2 57490  98.6841 232.3853 0001590  97.8330 262.3028 14.19938061148024
HJ-2F                   
1 57519U 23116A   26162.27076456  .00006092  00000+0  26762-3 0  9996
2 57519  97.3843 167.5925 0010344  69.3740 290.8605 15.22235375157850
XRISM                   
1 57800U 23137A   26162.05302960  .00004483  00000+0  24618-3 0  9990
2 57800  31.0028  39.3338 0007943 262.6424  97.3312 15.12412932151938
METEOR-M2 4             
1 59051U 24039A   26162.27470060  .00000002  00000+0  20757-4 0  9997
2 59051  98.7008 121.6471 0006935 177.7293 182.3917 14.22428978118429
GRBBETA                 
1 60237U 24128C   26161.91498095  .00003192  00000+0  22493-3 0  9993
2 60237  61.9897 238.2715 0041491 133.2900 227.1666 15.06598569105320
TRANSPORTER-11 OBJECT A 
1 60468U 24149A   26162.21304354  .00007155  00000+0  22826-3 0  9993
2 60468  97.3732 242.1617 0002276 218.4522 141.6558 15.32808970101141
WARATAH SEED-1          
1 60469U 24149B   26162.18228493  .00011326  00000+0  32746-3 0  9996
2 60469  97.3693 242.7518 0000984 196.0045 164.1167 15.35794211101195
PHISAT 2                
1 60470U 24149C   26162.23040455  .00006007  00000+0  20338-3 0  9998
2 60470  97.3758 241.4799 0000484 181.0524 179.0716 15.30962253101088
LEMUR-2-TOMATOKECHUP    
1 60471U 24149D   26162.17890456  .00009493  00000+0  27392-3 0  9995
2 60471  97.3799 244.2108 0000846 190.0298 170.0929 15.35903465101249
